SL-14 R/B               
1 16792U 86046B   25340.92157580  .00000902  00000+0  10135-3 0  9993
2 16792  82.4811 167.8089 0023297 171.1044 189.0590 14.85475069112635
SL-14 R/B               
1 16882U 86055B   25340.91046492  .00000879  00000+0  98784-4 0  9991
2 16882  82.5210 213.8499 0017496 280.4349  89.8567 14.85522348105593
AJISAI (EGS)            
1 16908U 86061A   25340.96564106 -.00000078  00000+0  13558-3 0  9996
2 16908  50.0114  18.4720 0011279  51.3942  39.0379 12.44514206456457
COSMOS 1812             
1 17295U 87003A   25340.94787823  .00114345  00000+0  79258-3 0  9995
2 17295  82.4874 298.2789 0007186  94.9437 265.2647 15.74077022129742
SL-14 R/B               
1 17567U 87024B   25340.92127737  .00000847  00000+0  93924-4 0  9998
2 17567  82.5280 179.9205 0017592 203.9725 156.0675 14.86014965 74351
COSMOS 1833             
1 17589U 87027A   25340.91290715  .00000081  00000+0  69209-4 0  9990
2 17589  70.9133 161.0266 0022283 339.8948  20.1293 14.13019458997208
SL-16 R/B               
1 17590U 87027B   25340.80271615 -.00000113  00000+0 -32290-4 0  9996
2 17590  71.0025 112.2281 0007510 265.9159  94.1106 14.17152420  2185
SL-14 R/B               
1 17912U 87038B   25340.86859995  .00000832  00000+0  93858-4 0  9998
2 17912  82.5022  24.2309 0020792 110.0938 250.2518 14.85253259 65450
COSMOS 1844             
1 17973U 87041A   25340.90470910 -.00000132  00000+0 -43634-4 0  9992
2 17973  70.8985 229.8781 0030253 166.4954 193.6984 14.14526867990463
SL-14 R/B               
1 18153U 87055B   25340.72679198  .00000991  00000+0  11166-3 0  9992
2 18153  82.5000  76.6547 0019774 324.3013  35.6879 14.85511772 56138
COSMOS 1867             
1 18187U 87060A   25340.94401021  .00000027  00000+0  47764-4 0  9991
2 18187  65.0098 206.4331 0013648 270.5173  89.4347 14.31484771  6664
SL-14 R/B               
1 18749U 88001B   25340.91805531  .00000954  00000+0  10766-3 0  9992
2 18749  82.5127 282.6230 0017942 180.1724 179.9489 14.85414262 28256
