CCSDS_OMM_VERS = 2.0
CREATION_DATE  = 
ORIGINATOR     = 

OBJECT_NAME    = SL-14 R/B
OBJECT_ID      = 1986-046B
CENTER_NAME    = EARTH
REF_FRAME      = TEME
TIME_SYSTEM    = UTC
MEAN_ELEMENT_THEORY = SGP/SGP4

EPOCH          = 2025-12-06T22:07:04.149120
MEAN_MOTION    = 14.85475069
ECCENTRICITY   = .00232971
INCLINATION    = 82.4811
RA_OF_ASC_NODE = 167.8089
ARG_OF_PERICENTER = 171.1044
MEAN_ANOMALY   = 189.0590

EPHEMERIS_TYPE = 0
CLASSIFICATION_TYPE = U
NORAD_CAT_ID   = 16792
ELEMENT_SET_NO = 999
REV_AT_EPOCH   = 11263
BSTAR          = .1013522E-3
MEAN_MOTION_DOT = .902E-5
MEAN_MOTION_DDOT = 0

CCSDS_OMM_VERS = 2.0
CREATION_DATE  = 
ORIGINATOR     = 

OBJECT_NAME    = SL-14 R/B
OBJECT_ID      = 1986-055B
CENTER_NAME    = EARTH
REF_FRAME      = TEME
TIME_SYSTEM    = UTC
MEAN_ELEMENT_THEORY = SGP/SGP4

EPOCH          = 2025-12-06T21:51:04.169088
MEAN_MOTION    = 14.85522348
ECCENTRICITY   = .00174963
INCLINATION    = 82.5210
RA_OF_ASC_NODE = 213.8499
ARG_OF_PERICENTER = 280.4349
MEAN_ANOMALY   = 89.8567

EPHEMERIS_TYPE = 0
CLASSIFICATION_TYPE = U
NORAD_CAT_ID   = 16882
ELEMENT_SET_NO = 999
REV_AT_EPOCH   = 10559
BSTAR          = .98783875E-4
MEAN_MOTION_DOT = .879E-5
MEAN_MOTION_DDOT = 0

CCSDS_OMM_VERS = 2.0
CREATION_DATE  = 
ORIGINATOR     = 

OBJECT_NAME    = AJISAI (EGS)
OBJECT_ID      = 1986-061A
CENTER_NAME    = EARTH
REF_FRAME      = TEME
TIME_SYSTEM    = UTC
MEAN_ELEMENT_THEORY = SGP/SGP4

EPOCH          = 2025-12-06T23:10:31.387584
MEAN_MOTION    = 12.44514206
ECCENTRICITY   = .00112797
INCLINATION    = 50.0114
RA_OF_ASC_NODE = 18.4720
ARG_OF_PERICENTER = 51.3942
MEAN_ANOMALY   = 39.0379

EPHEMERIS_TYPE = 0
CLASSIFICATION_TYPE = U
NORAD_CAT_ID   = 16908
ELEMENT_SET_NO = 999
REV_AT_EPOCH   = 45645
BSTAR          = .1355829E-3
MEAN_MOTION_DOT = -.78E-6
MEAN_MOTION_DDOT = 0

CCSDS_OMM_VERS = 2.0
CREATION_DATE  = 
ORIGINATOR     = 

OBJECT_NAME    = COSMOS 1812
OBJECT_ID      = 1987-003A
CENTER_NAME    = EARTH
REF_FRAME      = TEME
TIME_SYSTEM    = UTC
MEAN_ELEMENT_THEORY = SGP/SGP4

EPOCH          = 2025-12-06T22:44:56.679072
MEAN_MOTION    = 15.74077022
ECCENTRICITY   = .00071864
INCLINATION    = 82.4874
RA_OF_ASC_NODE = 298.2789
ARG_OF_PERICENTER = 94.9437
MEAN_ANOMALY   = 265.2647

EPHEMERIS_TYPE = 0
CLASSIFICATION_TYPE = U
NORAD_CAT_ID   = 17295
ELEMENT_SET_NO = 999
REV_AT_EPOCH   = 12974
BSTAR          = .79258493E-3
MEAN_MOTION_DOT = .114345E-2
MEAN_MOTION_DDOT = 0

CCSDS_OMM_VERS = 2.0
CREATION_DATE  = 
ORIGINATOR     = 

OBJECT_NAME    = SL-14 R/B
OBJECT_ID      = 1987-024B
CENTER_NAME    = EARTH
REF_FRAME      = TEME
TIME_SYSTEM    = UTC
MEAN_ELEMENT_THEORY = SGP/SGP4

EPOCH          = 2025-12-06T22:06:38.364768
MEAN_MOTION    = 14.86014965
ECCENTRICITY   = .00175928
INCLINATION    = 82.5280
RA_OF_ASC_NODE = 179.9205
ARG_OF_PERICENTER = 203.9725
MEAN_ANOMALY   = 156.0675

EPHEMERIS_TYPE = 0
CLASSIFICATION_TYPE = U
NORAD_CAT_ID   = 17567
ELEMENT_SET_NO = 999
REV_AT_EPOCH   = 7435
BSTAR          = .93924078E-4
MEAN_MOTION_DOT = .847E-5
MEAN_MOTION_DDOT = 0

CCSDS_OMM_VERS = 2.0
CREATION_DATE  = 
ORIGINATOR     = 

OBJECT_NAME    = COSMOS 1833
OBJECT_ID      = 1987-027A
CENTER_NAME    = EARTH
REF_FRAME      = TEME
TIME_SYSTEM    = UTC
MEAN_ELEMENT_THEORY = SGP/SGP4

EPOCH          = 2025-12-06T21:54:35.177760
MEAN_MOTION    = 14.13019458
ECCENTRICITY   = .00222835
INCLINATION    = 70.9133
RA_OF_ASC_NODE = 161.0266
ARG_OF_PERICENTER = 339.8948
MEAN_ANOMALY   = 20.1293

EPHEMERIS_TYPE = 0
CLASSIFICATION_TYPE = U
NORAD_CAT_ID   = 17589
ELEMENT_SET_NO = 999
REV_AT_EPOCH   = 99720
BSTAR          = .69208898E-4
MEAN_MOTION_DOT = .81E-6
MEAN_MOTION_DDOT = 0

CCSDS_OMM_VERS = 2.0
CREATION_DATE  = 
ORIGINATOR     = 

OBJECT_NAME    = SL-16 R/B
OBJECT_ID      = 1987-027B
CENTER_NAME    = EARTH
REF_FRAME      = TEME
TIME_SYSTEM    = UTC
MEAN_ELEMENT_THEORY = SGP/SGP4

EPOCH          = 2025-12-06T19:15:54.675360
MEAN_MOTION    = 14.17152420
ECCENTRICITY   = .00075102
INCLINATION    = 71.0025
RA_OF_ASC_NODE = 112.2281
ARG_OF_PERICENTER = 265.9159
MEAN_ANOMALY   = 94.1106

EPHEMERIS_TYPE = 0
CLASSIFICATION_TYPE = U
NORAD_CAT_ID   = 17590
ELEMENT_SET_NO = 999
REV_AT_EPOCH   = 218
BSTAR          = -.32289879E-4
MEAN_MOTION_DOT = -.113E-5
MEAN_MOTION_DDOT = 0

CCSDS_OMM_VERS = 2.0
CREATION_DATE  = 
ORIGINATOR     = 

OBJECT_NAME    = SL-14 R/B
OBJECT_ID      = 1987-038B
CENTER_NAME    = EARTH
REF_FRAME      = TEME
TIME_SYSTEM    = UTC
MEAN_ELEMENT_THEORY = SGP/SGP4

EPOCH          = 2025-12-06T20:50:47.035680
MEAN_MOTION    = 14.85253259
ECCENTRICITY   = .00207923
INCLINATION    = 82.5022
RA_OF_ASC_NODE = 24.2309
ARG_OF_PERICENTER = 110.0938
MEAN_ANOMALY   = 250.2518

EPHEMERIS_TYPE = 0
CLASSIFICATION_TYPE = U
NORAD_CAT_ID   = 17912
ELEMENT_SET_NO = 999
REV_AT_EPOCH   = 6545
BSTAR          = .93858369E-4
MEAN_MOTION_DOT = .832E-5
MEAN_MOTION_DDOT = 0

CCSDS_OMM_VERS = 2.0
CREATION_DATE  = 
ORIGINATOR     = 

OBJECT_NAME    = COSMOS 1844
OBJECT_ID      = 1987-041A
CENTER_NAME    = EARTH
REF_FRAME      = TEME
TIME_SYSTEM    = UTC
MEAN_ELEMENT_THEORY = SGP/SGP4

EPOCH          = 2025-12-06T21:42:46.866240
MEAN_MOTION    = 14.14526867
ECCENTRICITY   = .00302535
INCLINATION    = 70.8985
RA_OF_ASC_NODE = 229.8781
ARG_OF_PERICENTER = 166.4954
MEAN_ANOMALY   = 193.6984

EPHEMERIS_TYPE = 0
CLASSIFICATION_TYPE = U
NORAD_CAT_ID   = 17973
ELEMENT_SET_NO = 999
REV_AT_EPOCH   = 99046
BSTAR          = -.43634409E-4
MEAN_MOTION_DOT = -.132E-5
MEAN_MOTION_DDOT = 0

CCSDS_OMM_VERS = 2.0
CREATION_DATE  = 
ORIGINATOR     = 

OBJECT_NAME    = SL-14 R/B
OBJECT_ID      = 1987-055B
CENTER_NAME    = EARTH
REF_FRAME      = TEME
TIME_SYSTEM    = UTC
MEAN_ELEMENT_THEORY = SGP/SGP4

EPOCH          = 2025-12-06T17:26:34.827072
MEAN_MOTION    = 14.85511772
ECCENTRICITY   = .00197746
INCLINATION    = 82.5000
RA_OF_ASC_NODE = 76.6547
ARG_OF_PERICENTER = 324.3013
MEAN_ANOMALY   = 35.6879

EPHEMERIS_TYPE = 0
CLASSIFICATION_TYPE = U
NORAD_CAT_ID   = 18153
ELEMENT_SET_NO = 999
REV_AT_EPOCH   = 5613
BSTAR          = .11165548E-3
MEAN_MOTION_DOT = .991E-5
MEAN_MOTION_DDOT = 0

CCSDS_OMM_VERS = 2.0
CREATION_DATE  = 
ORIGINATOR     = 

OBJECT_NAME    = COSMOS 1867
OBJECT_ID      = 1987-060A
CENTER_NAME    = EARTH
REF_FRAME      = TEME
TIME_SYSTEM    = UTC
MEAN_ELEMENT_THEORY = SGP/SGP4

EPOCH          = 2025-12-06T22:39:22.482144
MEAN_MOTION    = 14.31484771
ECCENTRICITY   = .00136487
INCLINATION    = 65.0098
RA_OF_ASC_NODE = 206.4331
ARG_OF_PERICENTER = 270.5173
MEAN_ANOMALY   = 89.4347

EPHEMERIS_TYPE = 0
CLASSIFICATION_TYPE = U
NORAD_CAT_ID   = 18187
ELEMENT_SET_NO = 999
REV_AT_EPOCH   = 666
BSTAR          = .47764015E-4
MEAN_MOTION_DOT = .27E-6
MEAN_MOTION_DDOT = 0

CCSDS_OMM_VERS = 2.0
CREATION_DATE  = 
ORIGINATOR     = 

OBJECT_NAME    = SL-14 R/B
OBJECT_ID      = 1988-001B
CENTER_NAME    = EARTH
REF_FRAME      = TEME
TIME_SYSTEM    = UTC
MEAN_ELEMENT_THEORY = SGP/SGP4

EPOCH          = 2025-12-06T22:01:59.978784
MEAN_MOTION    = 14.85414262
ECCENTRICITY   = .00179429
INCLINATION    = 82.5127
RA_OF_ASC_NODE = 282.6230
ARG_OF_PERICENTER = 180.1724
MEAN_ANOMALY   = 179.9489

EPHEMERIS_TYPE = 0
CLASSIFICATION_TYPE = U
NORAD_CAT_ID   = 18749
ELEMENT_SET_NO = 999
REV_AT_EPOCH   = 2825
BSTAR          = .10766293E-3
MEAN_MOTION_DOT = .954E-5
MEAN_MOTION_DDOT = 0

